STARLINK-2478           
1 48135U 21027AV  26068.66591199 -.00109876  00000+0 -38835-2 0  9992
2 48135  53.1606 168.0254 0003205 139.4630 220.6609 15.29082675272478
OTTER                   
1 62623U 25009Q   26068.72300813  .00012198  00000+0  45151-3 0  9990
2 62623  97.4065 151.3812 0003573 310.7710  49.3219 15.27809545 63722
