[{"OBJECT_NAME":"STARLINK-2478","OBJECT_ID":"2021-027AV","EPOCH":"2026-03-09T15:58:54.796800","MEAN_MOTION":15.29082675,"ECCENTRICITY":0.00032054,"INCLINATION":53.1606,"RA_OF_ASC_NODE":168.0254,"ARG_OF_PERICENTER":139.463,"MEAN_ANOMALY":220.6609,"EPHEMERIS_TYPE":0,"CLASSIFICATION_TYPE":"U","NORAD_CAT_ID":48135,"ELEMENT_SET_NO":999,"REV_AT_EPOCH":27247,"BSTAR":-0.0038835427,"MEAN_MOTION_DOT":-0.00109876,"MEAN_MOTION_DDOT":0},{"OBJECT_NAME":"OTTER","OBJECT_ID":"2025-009Q","EPOCH":"2026-03-09T17:21:07.902432","MEAN_MOTION":15.27809545,"ECCENTRICITY":0.00035728,"INCLINATION":97.4065,"RA_OF_ASC_NODE":151.3812,"ARG_OF_PERICENTER":310.771,"MEAN_ANOMALY":49.3219,"EPHEMERIS_TYPE":0,"CLASSIFICATION_TYPE":"U","NORAD_CAT_ID":62623,"ELEMENT_SET_NO":999,"REV_AT_EPOCH":6372,"BSTAR":0.00045151206,"MEAN_MOTION_DOT":0.00012198,"MEAN_MOTION_DDOT":0}]
